#dP2024 12  5  6  0  0.00000000      96 __u+U IGS20 EXT  IAC
## 2343 367200.00000000   900.00000000 60649 0.2500000000000
+   52   G02G03G04G05G06G07G08G09G10G11G12G13G14G15G16G17G18
+        G19G20G21G22G23G24G25G26G27G28G29G30G31G32R01R02R03
+        R04R05R07R08R09R11R12R14R15R16R17R18R19R20R21R22R24
+        R26  0  0  0  0  0  0  0  0  0  0  0  0  0  0  0  0
+          0  0  0  0  0  0  0  0  0  0  0  0  0  0  0  0  0
++         8  8  7  7  8  8  8  8  8  7  8  8  8  8  8  8  7
++         8  7  8  8  8  8  7  8  8  8  8  8  8  8  8  8  9
++         9  8  8  8  8  8  9  9  8  8  7  8  8  7  8  8  8
++         9  0  0  0  0  0  0  0  0  0  0  0  0  0  0  0  0
++         0  0  0  0  0  0  0  0  0  0  0  0  0  0  0  0  0
%c M  cc GPS ccc cccc cccc cccc cccc ccccc ccccc ccccc ccccc
%c cc cc ccc ccc cccc cccc cccc cccc ccccc ccccc ccccc ccccc
%f  0.0000000  0.000000000  0.00000000000  0.000000000000000
%f  0.0000000  0.000000000  0.00000000000  0.000000000000000
%i    0    0    0    0      0      0      0      0         0
%i    0    0    0    0      0      0      0      0         0
/* IAC                                ULTRA-RAPID PREDICTION
/* S/V CLOCKS ARE ALIGNED TO GNSS TIME                      
/* G:C1WC2W R:C1PC2P E:C1XC5X C:C2IC6I J:C1CC2S             
/* PCV:IGS20_2317 OL/AL:FES2004  NONE     YN ORB:CoN CLK:CoN
*  2024 12 05 22  0  0.00000000
PG02  14192.250887 -22206.354472    243.398000   -298.771641
PG03   9883.231770 -12815.940885 -21200.028940    617.553116
PG04   3118.233703 -21417.915123 -15275.693388    491.077171
PG05 -23270.366104   5891.137821  11262.680655   -195.121771
PG06 -14099.157321  -5273.913913 -21823.507671    -21.865882
PG07   2110.709254 -21457.941659  15738.195027    -16.716272
PG08  10952.591057 -11832.747360  20909.298988    431.377167
PG09  -5121.008196 -24805.297546  -7967.433385    474.464486
PG10  21722.568926  10552.227070  11664.396878   -222.753945
PG11 -20135.559402   7325.504816 -15614.664605   -752.204058
PG12 -14473.472420  11098.824598 -19579.395270   -556.528064
PG13 -14664.541340   2567.296995  21769.177429    688.837082
PG14 -18607.570184 -12983.601161  14040.920051    554.231410
PG15  -8970.535606  13785.354363  20308.937732    236.076312
PG16  25761.986280    501.493487   6995.089608   -110.681918
PG17 -13110.629115 -21589.005902  -7458.735585    531.220534
PG18   -845.453165  20073.713839  17284.708198   -660.543011
PG19 -16047.899611 -14002.810974 -16275.472951    570.692081
PG20 -26452.952484   1113.069628   -519.687619    368.141912
PG21  16895.317923 -18790.537662   6413.373324     95.716220
PG22 -23171.244877 -10430.366499   7545.413326    -84.399782
PG23   9081.704007  14556.818225  20378.532061    377.564682
PG24 -14379.977200  22009.462272   1131.715034   -475.716897
PG25    662.276993  15732.509715 -21759.884772    498.408341
PG26  25995.452835   4504.664498  -4713.734668      1.811547
PG27  16129.087472    416.671845  20871.133412    -34.402223
PG28  13371.404510   7399.975075 -21739.376862   -499.757931
PG29   2701.265299  25145.702005  -7951.235056   -558.314967
PG30  -8489.847827 -14278.989128  20828.024552   -267.511273
PG31  19111.679821  -2861.377720 -18620.589453   -220.521662
PG32  15901.026656  18640.662986 -10288.054945   -563.597001
PR01  16901.628000  18866.797004   2985.825502    106.764917
PR02  18627.619426  10829.361098 -13670.869196    -39.279897
PR03  10494.814317  -4379.537358 -22794.441361    112.689776
PR04  -3127.089761 -16432.223859 -19221.918072    267.121107
PR05 -14945.030483 -19939.343573  -5370.256282    141.757631
PR07 -10138.828648   4840.371747  22934.300055     96.355611
PR08   3420.272557  16637.892880  19106.134201     -6.161305
PR09 -23437.932221   1255.259466  10104.453968    224.523385
PR11 -10976.688845  12271.936433 -19482.540381      5.407499
PR12  10184.977889   8310.489212 -21844.315200     48.057777
PR14  22713.819548  -9252.731225   6981.267142     27.366189
PR15   9196.998252 -12323.432605  20362.924054     73.443302
PR16 -10020.176623  -8214.790936  21981.699521     31.383669
PR17  12233.457769 -16914.328818  14707.192582    145.976594
PR18   7399.800696 -24371.311138   -817.158725    175.326169
PR19    402.238580 -20840.847675 -14699.005951   -300.880319
PR20 -10338.585248  -1983.604057 -23219.039555   -122.837905
PR21 -12445.974130  15904.873436 -15555.148674   -157.099765
PR22  -7288.297729  24358.238753   2155.846292    -32.033837
PR24  11043.053321   1111.799587  22992.343716    -82.897880
PR26   1984.700638  15638.318942  20067.422663   -133.006103
*  2024 12 05 22 15  0.00000000
PG02  14349.363298 -21948.089962   3124.127669   -298.763762
PG03  12192.998161 -12522.950796 -20127.880110    617.561450
PG04   3995.300904 -19763.776766 -17193.068423    491.082800
PG05 -24422.773980   5648.461832   8700.831991   -195.122755
PG06 -12620.267873  -7317.082723 -22126.018970    -21.892223
PG07   3226.778348 -22649.443565  13629.449507    -16.714921
PG08  12126.810594  -9674.603403  21403.202040    431.385581
PG09  -4444.908527 -23967.843101 -10553.479741    474.479318
PG10  20296.555115  10536.753023  14022.609933   -222.767514
PG11 -19095.547338   5725.502234 -17479.374287   -752.204714
PG12 -16531.691368  10640.638605 -18124.656063   -556.530155
PG13 -15367.667379    148.899986  21457.028029    688.838426
PG14 -16885.925378 -12990.784490  16050.542987    554.238404
PG15 -10413.226088  11772.472002  20878.138245    236.080451
PG16  26389.469440    835.696723   4261.978499   -110.673265
PG17 -13148.673864 -22376.874337  -4695.477532    531.206524
PG18  -2077.456380  21486.053622  15352.582584   -660.542835
PG19 -16461.962196 -15665.260420 -14236.867416    570.695937
PG20 -26246.297427    815.674270  -3363.793722    368.141613
PG21  16732.888069 -17880.027688   9138.510610     95.715323
PG22 -22168.816398 -10500.950821  10169.706584    -84.402174
PG23   6715.784264  14456.834472  21325.933100    377.571689
PG24 -14528.359040  21529.983321   3935.707312   -475.714391
PG25  -1751.725640  15554.817253 -21804.451055    498.407984
PG26  25327.068462   4797.312071  -7371.621225      1.799150
PG27  17090.900168   2605.997658  19978.888038    -34.402044
PG28  12002.148486   9472.375565 -21733.941667   -499.767888
PG29   2126.743045  24232.985185 -10558.526606   -558.312187
PG30  -7068.439135 -16114.193797  19972.633551   -267.504078
PG31  17917.871474  -1069.512547 -19934.392030   -220.521041
PG32  16156.756222  19682.837293  -7694.095609   -563.591766
PR01  16591.805872  18373.436318   6136.666673    106.766177
PR02  19806.437894  11807.745486 -10946.604549    -39.279855
PR03  12495.775783  -2450.314883 -22069.842875    112.690498
PR04  -1450.313033 -14602.742941 -20830.754841    267.122544
PR05 -14470.746086 -19206.148685  -8453.987788    141.758172
PR07 -12134.347516   2901.540333  22277.299621     96.356204
PR08   1749.509482  14850.280065  20736.761165     -6.161200
PR09 -22066.348271    916.273476  12851.865667    224.525144
PR11 -13153.709507  12980.863326 -17584.491834      5.406790
PR12   7529.451919   9016.186245 -22625.334951     48.058229
PR14  23325.694499  -9545.702517   3874.122831     27.366299
PR15  11497.012529 -13032.754628  18681.778995     73.442959
PR16  -7354.828369  -8926.650889  22741.608724     31.383981
PR17  11590.450800 -15061.054922  17053.989271    145.979639
PR18   7182.974468 -24332.832437   2421.063026    175.327980
PR19    735.413827 -22470.711636 -12047.879917   -300.881455
PR20  -9461.974898  -4719.078394 -23194.930533   -122.838371
PR21 -11759.509136  13954.692643 -17800.246862   -157.102591
PR22  -7167.874120  24462.199560  -1053.476810    -32.044789
PR24  10308.288582   3848.866172  23036.703115    -82.899251
PR26    209.982433  13791.227894  21472.202859   -133.005764
EOF
